NORAD_CAT_ID,OBJECT_NAME,OBJECT_TYPE,EPOCH,MEAN_MOTION,ECCENTRICITY,INCLINATION,RA_OF_ASC_NODE,ARG_OF_PERICENTER,MEAN_ANOMALY,BSTAR,MEAN_MOTION_DOT,MEAN_MOTION_DDOT,TLE_LINE0,TLE_LINE1,TLE_LINE2,SEMIMAJOR_AXIS,PERIOD,APOGEE,PERIGEE,DECAYED
53564.0,STARLINK-4577,PAYLOAD,2022-10-13 20:00:01,15.73140429,0.000334,53.2162,242.3085,6.891,291.9281,0.00070617,0.00099431,0.0,0 STARLINK-4577,1 53564U 22101AP  22286.83335648  .00099431  00000-0  70617-3 0  9999,2 53564  53.2162 242.3085 0003340   6.8910 291.9281 15.73140429  8682,6728.065,91.537,352.177,347.68300000000005,0.0
53564.0,STARLINK-4577,PAYLOAD,2022-10-13 22:00:00,15.73194837,0.000333,53.2168,241.8958,6.6887,44.2698,0.00011846,0.00016034,0.0,0 STARLINK-4577,1 53564U 22101AP  22286.91667824  .00016034  00000-0  11846-3 0  9999,2 53564  53.2168 241.8958 0003330   6.6887  44.2698 15.73194837  1306,6727.91,91.533,352.015,347.534,0.0
53564.0,STARLINK-4577,PAYLOAD,2022-10-14 14:00:01,15.73140693,0.0003092,53.2171,238.5967,14.9971,213.8557,0.00073895,0.00104131,0.0,0 STARLINK-4577,1 53564U 22101AP  22287.58334491  .00104131  00000-0  73895-3 0  9992,2 53564  53.2171 238.5967 0003092  14.9971 213.8557 15.73140693  8805,6728.064,91.537,352.01,347.849,0.0
53564.0,STARLINK-4577,PAYLOAD,2022-10-14 18:00:00,15.73203667,0.0003007,53.2174,237.7709,14.3033,78.988,2.9677e-06,-2.06e-06,0.0,0 STARLINK-4577,1 53564U 22101AP  22287.75001157 -.00000206  00000-0  29677-5 0  9991,2 53564  53.2174 237.7709 0003007  14.3033  78.9880 15.73203667  8835,6727.885,91.533,351.773,347.727,0.0
53564.0,STARLINK-4577,PAYLOAD,2022-10-15 14:00:01,15.73261383,0.0002982,53.2116,233.6547,9.666,126.0874,-0.00039564,-0.00055941,0.0,0 STARLINK-4577,1 53564U 22101AP  22288.58334491 -.00055941  00000-0 -39564-3 0  9994,2 53564  53.2116 233.6547 0002982   9.6660 126.0874 15.73261383  1302,6727.72,91.53,351.591,347.579,0.0
53564.0,STARLINK-4577,PAYLOAD,2022-10-15 22:00:01,15.73082426,0.0003263,53.2155,231.9989,14.1543,210.7645,-0.0011494,-0.00158201,0.0,0 STARLINK-4577,1 53564U 22101AP  22288.91668981 -.00158201  00000-0 -11494-2 0  9999,2 53564  53.2155 231.9989 0003263  14.1543 210.7645 15.73082426  9012,6728.23,91.54,352.291,347.9,0.0
53564.0,STARLINK-4577,PAYLOAD,2022-10-16 06:00:00,15.7312774,0.0003097,53.212,230.3571,8.8356,304.8094,0.00022201,0.00030559,0.0,0 STARLINK-4577,1 53564U 22101AP  22289.25001157  .00030559  00000-0  22201-3 0  9995,2 53564  53.2120 230.3571 0003097   8.8356 304.8094 15.73127740  9068,6728.101,91.537,352.05,347.8830000000001,0.0
53564.0,STARLINK-4577,PAYLOAD,2022-10-16 14:00:01,15.73121015,0.000289,53.2126,228.7058,11.1356,31.3802,0.0005868,0.00082275,0.0,0 STARLINK-4577,1 53564U 22101AP  22289.58334491  .00082275  00000-0  58680-3 0  9993,2 53564  53.2126 228.7058 0002890  11.1356  31.3802 15.73121015  1309,6728.12,91.538,351.93,348.041,0.0
53564.0,STARLINK-4577,PAYLOAD,2022-10-16 22:00:00,15.73200677,0.0002832,53.2138,227.0552,14.3791,116.9977,0.00044824,0.00062768,0.0,0 STARLINK-4577,1 53564U 22101AP  22289.91667824  .00062768  00000-0  44824-3 0  9999,2 53564  53.2138 227.0552 0002832  14.3791 116.9977 15.73200677  9175,6727.893,91.533,351.664,347.853,0.0
53564.0,STARLINK-4577,PAYLOAD,2022-10-17 06:00:00,15.73198575,0.0003163,53.2144,225.407,11.0164,209.3077,0.00042773,0.00059844,0.0,0 STARLINK-4577,1 53564U 22101AP  22290.25001157  .00059844  00000-0  42773-3 0  9991,2 53564  53.2144 225.4070 0003163  11.0164 209.3077 15.73198575  9222,6727.899,91.533,351.892,347.636,0.0
53564.0,STARLINK-4577,PAYLOAD,2022-10-17 14:00:01,15.73229834,0.0002861,53.2137,223.7557,14.0052,295.2212,-0.00042503,-0.00059939,0.0,0 STARLINK-4577,1 53564U 22101AP  22290.58334491 -.00059939  00000-0 -42503-3 0  9995,2 53564  53.2137 223.7557 0002861  14.0052 295.2212 15.73229834  1307,6727.81,91.531,351.6,347.75,0.0
53564.0,STARLINK-4577,PAYLOAD,2022-10-17 22:00:00,15.73242923,0.000279,53.2127,222.1076,15.531,22.6407,-0.00043908,-0.0006192,0.0,0 STARLINK-4577,1 53564U 22101AP  22290.91667824 -.00061920  00000-0 -43908-3 0  9994,2 53564  53.2127 222.1076 0002790  15.5310  22.6407 15.73242923  9332,6727.773,91.531,351.515,347.761,0.0
53564.0,STARLINK-4577,PAYLOAD,2022-10-18 14:00:01,15.73153412,0.0002745,53.2132,218.8081,8.5318,207.4816,0.00061544,0.00086483,0.0,0 STARLINK-4577,1 53564U 22101AP  22291.58334491  .00086483  00000-0  61544-3 0  9994,2 53564  53.2132 218.8081 0002745   8.5318 207.4816 15.73153412  1306,6728.028,91.536,351.74,348.046,0.0
53564.0,STARLINK-4577,PAYLOAD,2022-10-18 22:00:00,15.73217395,0.0002652,53.2177,217.1519,4.6763,300.2892,-0.00021498,-0.00030711,0.0,0 STARLINK-4577,1 53564U 22101AP  22291.91667824 -.00030711  00000-0 -21498-3 0  9999,2 53564  53.2177 217.1519 0002652   4.6763 300.2892 15.73217395  9485,6727.846,91.532,351.495,347.926,0.0
53564.0,STARLINK-4577,PAYLOAD,2022-10-19 06:00:00,15.73337129,0.0002573999999999,53.2158,215.5061,331.4794,62.392,-0.0055027999999999,-0.00715019,0.0,0 STARLINK-4577,1 53564U 22101AP  22292.25001157 -.00715019  00000-0 -55028-2 0  9994,2 53564  53.2158 215.5061 0002574 331.4794  62.3920 15.73337129  9538,6727.504,91.525,351.101,347.63800000000015,0.0
53564.0,STARLINK-4577,PAYLOAD,2022-10-19 14:00:01,15.72844148,0.0003646,53.2174,213.8525,293.0899,189.5809,-0.0088686,-0.01099103,0.0,0 STARLINK-4577,1 53564U 22101AP  22292.58334491 -.01099103  00000-0 -88686-2 0  9996,2 53564  53.2174 213.8525 0003646 293.0899 189.5809 15.72844148  1300,6728.91,91.554,353.228,348.32199999999995,0.0
53564.0,STARLINK-4577,PAYLOAD,2022-10-19 22:00:00,15.72048768,0.0006207999999999,53.2175,212.2054,274.11,296.5726,-0.0094531,-0.01130339,0.0,0 STARLINK-4577,1 53564U 22101AP  22292.91667824 -.01130339  00000-0 -94531-2 0  9995,2 53564  53.2175 212.2054 0006208 274.1100 296.5726 15.72048768  1304,6731.179,91.6,357.223,348.866,0.0
53564.0,STARLINK-4577,PAYLOAD,2022-10-20 06:00:00,15.71220027,0.0006738,53.2172,210.5611,270.0245,27.70300000000001,-0.0095418,-0.01104691,0.0,0 STARLINK-4577,1 53564U 22101AP  22293.25001157 -.01104691  00000-0 -95418-2 0  9991,2 53564  53.2172 210.5611 0006738 270.0245  27.7030 15.71220027  9695,6733.545999999999,91.649,359.9480000000001,350.874,0.0
53564.0,STARLINK-4577,PAYLOAD,2022-10-20 14:00:01,15.7041367,0.0004258,53.2174,208.9152,269.6066,114.1827,-0.010006,-0.01116325,0.0,0 STARLINK-4577,1 53564U 22101AP  22293.58334491 -.01116325  00000-0 -10006-1 0  9993,2 53564  53.2174 208.9152 0004258 269.6066 114.1827 15.70413670  1300,6735.851,91.696,360.584,354.848,0.0
53564.0,STARLINK-4577,PAYLOAD,2022-10-20 22:00:00,15.69615882,0.0001379,53.2176,207.2744,275.7825,193.0858,-0.010631,-0.01161131,0.0,0 STARLINK-4577,1 53564U 22101AP  22293.91667824 -.01161131  00000-0 -10631-1 0  9998,2 53564  53.2176 207.2744 0001379 275.7825 193.0858 15.69615882  1300,6738.1330000000025,91.742,360.927,359.069,0.0
53564.0,STARLINK-4577,PAYLOAD,2022-10-21 14:00:01,15.67967439,2.46e-05,53.2174,203.9958,96.9066,179.2069,-0.011002,-0.01107368,0.0,0 STARLINK-4577,1 53564U 22101AP  22294.58334491 -.01107368  00000-0 -11002-1 0  9998,2 53564  53.2174 203.9958 0000246  96.9066 179.2069 15.67967439  1306,6742.855,91.839,364.886,364.554,0.0
53564.0,STARLINK-4577,PAYLOAD,2022-10-21 22:00:00,15.67163361,0.0001125999999999,53.2171,202.3613,59.527,298.7327,-0.01154,-0.01140797,0.0,0 STARLINK-4577,1 53564U 22101AP  22294.91667824 -.01140797  00000-0 -11540-1 0  9994,2 53564  53.2171 202.3613 0001126  59.5270 298.7327 15.67163361  1300,6745.161,91.886,367.786,366.267,0.0
53564.0,STARLINK-4577,PAYLOAD,2022-10-22 14:00:01,15.65531949,0.0001220999999999,53.2172,199.0943,67.3089,92.3224,-0.012246,-0.01133708,0.0,0 STARLINK-4577,1 53564U 22101AP  22295.58334491 -.01133708  00000-0 -12246-1 0  9997,2 53564  53.2172 199.0943 0001221  67.3089  92.3224 15.65531949  1303,6749.846,91.982,372.535,370.887,0.0
53564.0,STARLINK-4577,PAYLOAD,2022-10-22 22:00:00,15.64718722,0.0001119,53.217,197.4661,82.4244,156.4234,-0.012657,-0.01133995,0.0,0 STARLINK-4577,1 53564U 22101AP  22295.91667824 -.01133995  00000-0 -12657-1 0  9997,2 53564  53.2170 197.4661 0001119  82.4244 156.4234 15.64718722  1305,6752.185,92.029,374.805,373.294,0.0
53564.0,STARLINK-4577,PAYLOAD,2022-10-23 06:00:00,15.63922569,0.0001053,53.2168,195.8394,70.8263,246.2524,-0.013365,-0.01157457,0.0,0 STARLINK-4577,1 53564U 22101AP  22296.25001157 -.01157457  00000-0 -13365-1 0  9992,2 53564  53.2168 195.8394 0001053  70.8263 246.2524 15.63922569 10165,6754.476,92.076,377.052,375.63,0.0
53564.0,STARLINK-4577,PAYLOAD,2022-10-23 14:00:01,15.63090747,0.0001058,53.2174,194.2104,63.2499,331.1017,-0.013499,-0.01133585,0.0,0 STARLINK-4577,1 53564U 22101AP  22296.58334491 -.01133585  00000-0 -13499-1 0  9992,2 53564  53.2174 194.2104 0001058  63.2499 331.1017 15.63090747  1307,6756.871999999999,92.125,379.452,378.022,0.0
53564.0,STARLINK-4577,PAYLOAD,2022-10-23 22:00:00,15.62292214,0.0001158,53.2171,192.5887,79.2609,31.3662,-0.0142009999999999,-0.01153535,0.0,0 STARLINK-4577,1 53564U 22101AP  22296.91667824 -.01153535  00000-0 -14201-1 0  9997,2 53564  53.2171 192.5887 0001158  79.2609  31.3662 15.62292214  1301,6759.175,92.172,381.822,380.257,0.0
53564.0,STARLINK-4577,PAYLOAD,2022-10-24 06:00:00,15.6147047,0.0001296,53.2164,190.9677,69.0179,116.919,-0.014511,-0.01142608,0.0,0 STARLINK-4577,1 53564U 22101AP  22297.25001157 -.01142608  00000-0 -14511-1 0  9999,2 53564  53.2164 190.9677 0001296  69.0179 116.9190 15.61470470 10323,6761.545999999999,92.221,384.287,382.534,0.0
53564.0,STARLINK-4577,PAYLOAD,2022-10-24 14:00:01,15.60649321,0.0001153,53.2173,189.3445,78.6463,181.6245,-0.014827,-0.01131876,0.0,0 STARLINK-4577,1 53564U 22101AP  22297.58334491 -.01131876  00000-0 -14827-1 0  9990,2 53564  53.2173 189.3445 0001153  78.6463 181.6245 15.60649321  1302,6763.917,92.269,386.562,385.002,0.0
